$$SOE
2460714.500000000, A.D. 2025-Feb-08 00:00:00.0000, 1.906844280774221E+08, -3.704071714663930E+08, -1.136625981321898E+07,
2460721.500000000, A.D. 2025-Feb-15 00:00:00.0000, 1.992130634248599E+08, -3.639629297872219E+08, -9.867766477841347E+06,
2460728.500000000, A.D. 2025-Feb-22 00:00:00.0000, 2.076064169853374E+08, -3.572716159852026E+08, -8.362574524010107E+06,
2460735.500000000, A.D. 2025-Mar-01 00:00:00.0000, 2.158570066050166E+08, -3.503347020612238E+08, -6.851634378689766E+06,
2460742.500000000, A.D. 2025-Mar-08 00:00:00.0000, 2.239572682765645E+08, -3.431538844664994E+08, -5.335925294854119E+06,
2460749.500000000, A.D. 2025-Mar-15 00:00:00.0000, 2.318995611184692E+08, -3.357310916101073E+08, -3.816455461407751E+06,
2460756.500000000, A.D. 2025-Mar-22 00:00:00.0000, 2.396761707649156E+08, -3.280684929188582E+08, -2.294261968653813E+06,
2460763.500000000, A.D. 2025-Mar-29 00:00:00.0000, 2.472793147788173E+08, -3.201685102606933E+08, -7.704110202382207E+05,
2460770.500000000, A.D. 2025-Apr-05 00:00:00.0000, 2.547011504500317E+08, -3.120338285603012E+08, 7.540018414624780E+05,
2460777.500000000, A.D. 2025-Apr-12 00:00:00.0000, 2.619337830891114E+08, -3.036674054669510E+08, 2.277851688481554E+06,
2460784.500000000, A.D. 2025-Apr-19 00:00:00.0000, 2.689692746644975E+08, -2.950724809150270E+08, 3.799984291229978E+06,
2460791.500000000, A.D. 2025-Apr-26 00:00:00.0000, 2.757996530888435E+08, -2.862525867344051E+08, 5.319216299247220E+06,
2460798.500000000, A.D. 2025-May-03 00:00:00.0000, 2.824169223008084E+08, -2.772115562407808E+08, 6.834335517662078E+06,
2460805.500000000, A.D. 2025-May-10 00:00:00.0000, 2.888130732014065E+08, -2.679535337416882E+08, 8.344101285502300E+06,
2460812.500000000, A.D. 2025-May-17 00:00:00.0000, 2.949800955091004E+08, -2.584829839381326E+08, 9.847244957297638E+06,
2460819.500000000, A.D. 2025-May-24 00:00:00.0000, 3.009099907320148E+08, -2.488047012089458E+08, 1.134247047578470E+07,
2460826.500000000, A.D. 2025-May-31 00:00:00.0000, 3.065947866976833E+08, -2.389238183944212E+08, 1.282845503136945E+07,
2460833.500000000, A.D. 2025-Jun-07 00:00:00.0000, 3.120265532591707E+08, -2.288458137997432E+08, 1.430384995276429E+07,
2460840.500000000, A.D. 2025-Jun-14 00:00:00.0000, 3.171974168249334E+08, -2.185765170074709E+08, 1.576728200031611E+07,
2460847.500000000, A.D. 2025-Jun-21 00:00:00.0000, 3.220995749300146E+08, -2.081221166848499E+08, 1.721735469113261E+07,
2460854.500000000, A.D. 2025-Jun-28 00:00:00.0000, 3.267253139698808E+08, -1.974891685267857E+08, 1.865264952034119E+07,
2460861.500000000, A.D. 2025-Jul-05 00:00:00.0000, 3.310670285682588E+08, -1.866846010781084E+08, 2.007172740029890E+07,
2460868.500000000, A.D. 2025-Jul-12 00:00:00.0000, 3.351172413705657E+08, -1.757157201365149E+08, 2.147313036717061E+07,
2460875.500000000, A.D. 2025-Jul-19 00:00:00.0000, 3.388686234292115E+08, -1.645902122052804E+08, 2.285538349636202E+07,
2460882.500000000, A.D. 2025-Jul-26 00:00:00.0000, 3.423140153593241E+08, -1.533161469468559E+08, 2.421699700881108E+07,
2460889.500000000, A.D. 2025-Aug-02 00:00:00.0000, 3.454464492872902E+08, -1.419019785112273E+08, 2.555646856928160E+07,
2460896.500000000, A.D. 2025-Aug-09 00:00:00.0000, 3.482591715586827E+08, -1.303565456493316E+08, 2.687228577744284E+07,
2460903.500000000, A.D. 2025-Aug-16 00:00:00.0000, 3.507456662107485E+08, -1.186890705703878E+08, 2.816292884174152E+07,
2460910.500000000, A.D. 2025-Aug-23 00:00:00.0000, 3.528996794147515E+08, -1.069091564221349E+08, 2.942687341042365E+07,
2460917.500000000, A.D. 2025-Aug-30 00:00:00.0000, 3.547152451166814E+08, -9.502678257553712E+07, 3.066259358581216E+07,
2460924.500000000, A.D. 2025-Sep-06 00:00:00.0000, 3.561867103490230E+08, -8.305229661483416E+07, 3.186856533081421E+07,
2460931.500000000, A.D. 2025-Sep-13 00:00:00.0000, 3.573087584199933E+08, -7.099640542770626E+07, 3.304327021300525E+07,
2460938.500000000, A.D. 2025-Sep-20 00:00:00.0000, 3.580764331108034E+08, -5.887016695801602E+07, 3.418519904263336E+07,
2460945.500000000, A.D. 2025-Sep-27 00:00:00.0000, 3.584851647841963E+08, -4.668497943301714E+07, 3.529285555017366E+07,
2460952.500000000, A.D. 2025-Oct-04 00:00:00.0000, 3.585307962247912E+08, -3.445256746138590E+07, 3.636476031954921E+07,
2460959.500000000, A.D. 2025-Oct-11 00:00:00.0000, 3.582096076655633E+08, -2.218496589617828E+07, 3.739945491940514E+07,
2460966.500000000, A.D. 2025-Oct-18 00:00:00.0000, 3.575183411023036E+08, -9.894501705202781E+06, 3.839550616695373E+07,
2460973.500000000, A.D. 2025-Oct-25 00:00:00.0000, 3.564542238447012E+08, 2.406226175545676E+06, 3.935151049307785E+07,
2460980.500000000, A.D. 2025-Nov-01 00:00:00.0000, 3.550149911448323E+08, 1.470436901439049E+07, 4.026609838441847E+07,
2460987.500000000, A.D. 2025-Nov-08 00:00:00.0000, 3.531989077332857E+08, 2.698685242358148E+07, 4.113793887228066E+07,
2460994.500000000, A.D. 2025-Nov-15 00:00:00.0000, 3.510047882032065E+08, 3.924040235744150E+07, 4.196574402306993E+07,
2461001.500000000, A.D. 2025-Nov-22 00:00:00.0000, 3.484320164345710E+08, 5.145157311510403E+07, 4.274827338131192E+07,
2461008.500000000, A.D. 2025-Nov-29 00:00:00.0000, 3.454805636936176E+08, 6.360677838772996E+07, 4.348433843935606E+07,
2461015.500000000, A.D. 2025-Dec-06 00:00:00.0000, 3.421510029291914E+08, 7.569232509966359E+07, 4.417280729957591E+07,
2461022.500000000, A.D. 2025-Dec-13 00:00:00.0000, 3.384445195144940E+08, 8.769444652959681E+07, 4.481260918195239E+07,
2461029.500000000, A.D. 2025-Dec-20 00:00:00.0000, 3.343629217461982E+08, 9.959933556400186E+07, 4.540273850481433E+07,
2461036.500000000, A.D. 2025-Dec-27 00:00:00.0000, 3.299086498574547E+08, 1.113931804847993E+08, 4.594225881301147E+07,
2461043.500000000, A.D. 2026-Jan-03 00:00:00.0000, 3.250847819375703E+08, 1.230622024665233E+08, 4.643030660246584E+07,
2461050.500000000, A.D. 2026-Jan-10 00:00:00.0000, 3.198950367423499E+08, 1.345926938748693E+08, 4.686609494183121E+07,
2461057.500000000, A.D. 2026-Jan-17 00:00:00.0000, 3.143437735252568E+08, 1.459710570286549E+08, 4.724891682975204E+07,
2461064.500000000, A.D. 2026-Jan-24 00:00:00.0000, 3.084359888907341E+08, 1.571838431874169E+08, 4.757814825134339E+07,
2461071.500000000, A.D. 2026-Jan-31 00:00:00.0000, 3.021773106445963E+08, 1.682177914860983E+08, 4.785325090225586E+07,
2461078.500000000, A.D. 2026-Feb-07 00:00:00.0000, 2.955739886845504E+08, 1.790598674814020E+08, 4.807377454396824E+07,
2461085.500000000, A.D. 2026-Feb-14 00:00:00.0000, 2.886328831976316E+08, 1.896973010130929E+08, 4.823935894325802E+07,
2461092.500000000, A.D. 2026-Feb-21 00:00:00.0000, 2.813614505981697E+08, 2.001176236738879E+08, 4.834973538795185E+07,
2461099.500000000, A.D. 2026-Feb-28 00:00:00.0000, 2.737677261935786E+08, 2.103087067591688E+08, 4.840472795538291E+07,
2461106.500000000, A.D. 2026-Mar-07 00:00:00.0000, 2.658603016215399E+08, 2.202587974794292E+08, 4.840425455177021E+07,
2461113.500000000, A.D. 2026-Mar-14 00:00:00.0000, 2.576482999789331E+08, 2.299565508486005E+08, 4.834832727261367E+07,
2461120.500000000, A.D. 2026-Mar-21 00:00:00.0000, 2.491413505937233E+08, 2.393910598961581E+08, 4.823705215279604E+07,
2461127.500000000, A.D. 2026-Mar-28 00:00:00.0000, 2.403495616141931E+08, 2.485518849999507E+08, 4.807062857251364E+07,
2461134.500000000, A.D. 2026-Apr-04 00:00:00.0000, 2.312834900168729E+08, 2.574290811692713E+08, 4.784934829859172E+07,
2461141.500000000, A.D. 2026-Apr-11 00:00:00.0000, 2.219541095328082E+08, 2.660132227434080E+08, 4.757359411595795E+07,
2461148.500000000, A.D. 2026-Apr-18 00:00:00.0000, 2.123727768975967E+08, 2.742954253560034E+08, 4.724383805022202E+07,
2461155.500000000, A.D. 2026-Apr-25 00:00:00.0000, 2.025511967355248E+08, 2.822673650667525E+08, 4.686063919991018E+07,
2461162.500000000, A.D. 2026-May-02 00:00:00.0000, 1.925013853847146E+08, 2.899212945448329E+08, 4.642464119768552E+07,
2461169.500000000, A.D. 2026-May-09 00:00:00.0000, 1.822356340679581E+08, 2.972500561793939E+08, 4.593656930992563E+07,
2461176.500000000, A.D. 2026-May-16 00:00:00.0000, 1.717664720661435E+08, 3.042470922271320E+08, 4.539722717928384E+07,
2461183.500000000, A.D. 2026-May-23 00:00:00.0000, 1.611066302224331E+08, 3.109064530209616E+08, 4.480749331873339E+07,
2461190.500000000, A.D. 2026-May-30 00:00:00.0000, 1.502690029657364E+08, 3.172228035838969E+08, 4.416831760363702E+07,
2461197.500000000, A.D. 2026-Jun-06 00:00:00.0000, 1.392666087851001E+08, 3.231914254294344E+08, 4.348071755557746E+07,
2461204.500000000, A.D. 2026-Jun-13 00:00:00.0000, 1.281125530652767E+08, 3.288082138402500E+08, 4.274577413407069E+07,
2461211.500000000, A.D. 2026-Jun-20 00:00:00.0000, 1.168199930164848E+08, 3.340696736599610E+08, 4.196462735546692E+07,
2461218.500000000, A.D. 2026-Jun-27 00:00:00.0000, 1.054021032100996E+08, 3.389729133827250E+08, 4.113847190016054E+07,
2461225.500000000, A.D. 2026-Jul-04 00:00:00.0000, 9.387204191013168E+07, 3.435156369114264E+08, 4.026855267822216E+07,
2461232.500000000, A.D. 2026-Jul-11 00:00:00.0000, 8.224291862481327E+07, 3.476961330143048E+08, 3.935616035208541E+07,
2461239.500000000, A.D. 2026-Jul-18 00:00:00.0000, 7.052776312000385E+07, 3.515132626794214E+08, 3.840262684119861E+07,
2461246.500000000, A.D. 2026-Jul-25 00:00:00.0000, 5.873949604555527E+07, 3.549664445521763E+08, 3.740932083625804E+07,
2461253.500000000, A.D. 2026-Aug-01 00:00:00.0000, 4.689090132690325E+07, 3.580556385962509E+08, 3.637764334240770E+07,
2461260.500000000, A.D. 2026-Aug-08 00:00:00.0000, 3.499460061847309E+07, 3.607813281340714E+08, 3.530902325445093E+07,
2461267.500000000, A.D. 2026-Aug-15 00:00:00.0000, 2.306303029375827E+07, 3.631445009111830E+08, 3.420491298643185E+07,
2461274.500000000, A.D. 2026-Aug-22 00:00:00.0000, 1.110842025190316E+07, 3.651466306001966E+08, 3.306678434644602E+07,
2461281.500000000, A.D. 2026-Aug-29 00:00:00.0000, -8.572277243244828E+05, 3.667896575565476E+08, 3.189612477223402E+07,
$$EOE